{
  "type": "FeatureCollection",
  "features": [
    {
      "type": "Feature",
      "properties": {
        "norad_id": 34396,
        "name": "COSMOS 2251 DEB",
        "group": "cosmos-2251-debris",
        "lat": -0.1208060468792337,
        "lon": 97.77970518651081,
        "alt_km": 650.6320084391255,
        "timestamp": "2025-12-26T03:50:12.488361+00:00",
        "meta_object_name": "COSMOS 2251 DEB",
        "meta_object_id": "1993-036QM",
        "meta_epoch": "2025-12-25T16:57:49.043232",
        "meta_mean_motion": 14.7475538,
        "meta_eccentricity": 0.0004415,
        "meta_inclination": 74.0292,
        "meta_ra_of_asc_node": 98.6993,
        "meta_arg_of_pericenter": 132.9465,
        "meta_mean_anomaly": 342.7819,
        "meta_ephemeris_type": 0,
        "meta_classification_type": "U",
        "meta_norad_cat_id": 34396,
        "meta_element_set_no": 999,
        "meta_rev_at_epoch": 88537,
        "meta_bstar": 0.0021837,
        "meta_mean_motion_dot": 0.00014611,
        "meta_mean_motion_ddot": 0,
        "tle_line1": "1 34396U 93036QM  25359.70681763  .00014611  00000+0  21837-2 0  9993",
        "tle_line2": "2 34396  74.0292  98.6993 0004415 132.9465 342.7819 14.74755380885378"
      },
      "geometry": {
        "type": "Point",
        "coordinates": [
          97.77970518651081,
          -0.1208060468792337
        ]
      }
    },
    {
      "type": "Feature",
      "properties": {
        "norad_id": 34400,
        "name": "COSMOS 2251 DEB",
        "group": "cosmos-2251-debris",
        "lat": -22.76754465813392,
        "lon": -13.435680944655491,
        "alt_km": 394.69005591626956,
        "timestamp": "2025-12-26T03:50:12.488372+00:00",
        "meta_object_name": "COSMOS 2251 DEB",
        "meta_object_id": "1993-036QR",
        "meta_epoch": "2025-12-24T01:07:12.164448",
        "meta_mean_motion": 15.58635981,
        "meta_eccentricity": 0.00028837,
        "meta_inclination": 73.9625,
        "meta_ra_of_asc_node": 358.2177,
        "meta_arg_of_pericenter": 215.0661,
        "meta_mean_anomaly": 145.0367,
        "meta_ephemeris_type": 0,
        "meta_classification_type": "U",
        "meta_norad_cat_id": 34400,
        "meta_element_set_no": 999,
        "meta_rev_at_epoch": 90150,
        "meta_bstar": 0.0033378255,
        "meta_mean_motion_dot": 0.00264923,
        "meta_mean_motion_ddot": 0,
        "tle_line1": "1 34400U 93036QR  25358.04666857  .00264923  00000+0  33378-2 0  9998",
        "tle_line2": "2 34400  73.9625 358.2177 0002883 215.0661 145.0367 15.58635981901502"
      },
      "geometry": {
        "type": "Point",
        "coordinates": [
          -13.435680944655491,
          -22.76754465813392
        ]
      }
    },
    {
      "type": "Feature",
      "properties": {
        "norad_id": 34409,
        "name": "COSMOS 2251 DEB",
        "group": "cosmos-2251-debris",
        "lat": 7.649590544532186,
        "lon": 99.150560539649,
        "alt_km": 757.9634238032286,
        "timestamp": "2025-12-26T03:50:12.488383+00:00",
        "meta_object_name": "COSMOS 2251 DEB",
        "meta_object_id": "1993-036RA",
        "meta_epoch": "2025-12-25T13:02:36.481056",
        "meta_mean_motion": 14.5805798,
        "meta_eccentricity": 0.0080423,
        "meta_inclination": 74.0637,
        "meta_ra_of_asc_node": 282.5201,
        "meta_arg_of_pericenter": 353.529,
        "meta_mean_anomaly": 184.2935,
        "meta_ephemeris_type": 0,
        "meta_classification_type": "U",
        "meta_norad_cat_id": 34409,
        "meta_element_set_no": 999,
        "meta_rev_at_epoch": 89379,
        "meta_bstar": 0.00026547,
        "meta_mean_motion_dot": 1.245e-05,
        "meta_mean_motion_ddot": 0,
        "tle_line1": "1 34409U 93036RA  25359.54347779  .00001245  00000+0  26547-3 0  9999",
        "tle_line2": "2 34409  74.0637 282.5201 0080423 353.5290 184.2935 14.58057980893798"
      },
      "geometry": {
        "type": "Point",
        "coordinates": [
          99.150560539649,
          7.649590544532186
        ]
      }
    },
    {
      "type": "Feature",
      "properties": {
        "norad_id": 34410,
        "name": "COSMOS 2251 DEB",
        "group": "cosmos-2251-debris",
        "lat": -57.022210320510084,
        "lon": -153.62253184474326,
        "alt_km": 521.9301294531433,
        "timestamp": "2025-12-26T03:50:12.488394+00:00",
        "meta_object_name": "COSMOS 2251 DEB",
        "meta_object_id": "1993-036RB",
        "meta_epoch": "2025-12-25T15:36:15.144192",
        "meta_mean_motion": 15.20112263,
        "meta_eccentricity": 0.0021152,
        "meta_inclination": 73.7358,
        "meta_ra_of_asc_node": 234.2049,
        "meta_arg_of_pericenter": 73.037,
        "meta_mean_anomaly": 318.1895,
        "meta_ephemeris_type": 0,
        "meta_classification_type": "U",
        "meta_norad_cat_id": 34410,
        "meta_element_set_no": 999,
        "meta_rev_at_epoch": 89970,
        "meta_bstar": 0.0022273,
        "meta_mean_motion_dot": 0.00048718,
        "meta_mean_motion_ddot": 0,
        "tle_line1": "1 34410U 93036RB  25359.65017528  .00048718  00000+0  22273-2 0  9996",
        "tle_line2": "2 34410  73.7358 234.2049 0021152  73.0370 318.1895 15.20112263899703"
      },
      "geometry": {
        "type": "Point",
        "coordinates": [
          -153.62253184474326,
          -57.022210320510084
        ]
      }
    },
    {
      "type": "Feature",
      "properties": {
        "norad_id": 34412,
        "name": "COSMOS 2251 DEB",
        "group": "cosmos-2251-debris",
        "lat": -37.226541515409956,
        "lon": 132.00539322557822,
        "alt_km": 872.7005780832988,
        "timestamp": "2025-12-26T03:50:12.488405+00:00",
        "meta_object_name": "COSMOS 2251 DEB",
        "meta_object_id": "1993-036RD",
        "meta_epoch": "2025-12-24T06:02:29.414112",
        "meta_mean_motion": 14.47276709,
        "meta_eccentricity": 0.01876387,
        "meta_inclination": 73.949,
        "meta_ra_of_asc_node": 302.9581,
        "meta_arg_of_pericenter": 35.3619,
        "meta_mean_anomaly": 325.9814,
        "meta_ephemeris_type": 0,
        "meta_classification_type": "U",
        "meta_norad_cat_id": 34412,
        "meta_element_set_no": 999,
        "meta_rev_at_epoch": 87817,
        "meta_bstar": 0.0018649119,
        "meta_mean_motion_dot": 8.49e-05,
        "meta_mean_motion_ddot": 0,
        "tle_line1": "1 34412U 93036RD  25358.25172933  .00008490  00000+0  18649-2 0  9990",
        "tle_line2": "2 34412  73.9490 302.9581 0187638  35.3619 325.9814 14.47276709878176"
      },
      "geometry": {
        "type": "Point",
        "coordinates": [
          132.00539322557822,
          -37.226541515409956
        ]
      }
    },
    {
      "type": "Feature",
      "properties": {
        "norad_id": 34413,
        "name": "COSMOS 2251 DEB",
        "group": "cosmos-2251-debris",
        "lat": -17.30932820455826,
        "lon": 65.62411515475213,
        "alt_km": 827.6541335343882,
        "timestamp": "2025-12-26T03:50:12.488417+00:00",
        "meta_object_name": "COSMOS 2251 DEB",
        "meta_object_id": "1993-036RE",
        "meta_epoch": "2025-12-24T22:25:10.363872",
        "meta_mean_motion": 14.291856,
        "meta_eccentricity": 0.0090951,
        "meta_inclination": 74.0301,
        "meta_ra_of_asc_node": 242.7297,
        "meta_arg_of_pericenter": 316.973,
        "meta_mean_anomaly": 57.9695,
        "meta_ephemeris_type": 0,
        "meta_classification_type": "U",
        "meta_norad_cat_id": 34413,
        "meta_element_set_no": 999,
        "meta_rev_at_epoch": 87305,
        "meta_bstar": 0.0013959,
        "meta_mean_motion_dot": 3.681e-05,
        "meta_mean_motion_ddot": 0,
        "tle_line1": "1 34413U 93036RE  25358.93414773  .00003681  00000+0  13959-2 0  9993",
        "tle_line2": "2 34413  74.0301 242.7297 0090951 316.9730  57.9695 14.29185600873058"
      },
      "geometry": {
        "type": "Point",
        "coordinates": [
          65.62411515475213,
          -17.30932820455826
        ]
      }
    },
    {
      "type": "Feature",
      "properties": {
        "norad_id": 34420,
        "name": "COSMOS 2251 DEB",
        "group": "cosmos-2251-debris",
        "lat": 21.19008708144356,
        "lon": 84.37418661868018,
        "alt_km": 740.1908746598583,
        "timestamp": "2025-12-26T03:50:12.488428+00:00",
        "meta_object_name": "COSMOS 2251 DEB",
        "meta_object_id": "1993-036RM",
        "meta_epoch": "2025-12-25T01:53:27.691872",
        "meta_mean_motion": 14.68332611,
        "meta_eccentricity": 0.01060549,
        "meta_inclination": 74.0333,
        "meta_ra_of_asc_node": 80.0919,
        "meta_arg_of_pericenter": 198.2983,
        "meta_mean_anomaly": 231.8315,
        "meta_ephemeris_type": 0,
        "meta_classification_type": "U",
        "meta_norad_cat_id": 34420,
        "meta_element_set_no": 999,
        "meta_rev_at_epoch": 89951,
        "meta_bstar": 0.00021975448,
        "meta_mean_motion_dot": 1.346e-05,
        "meta_mean_motion_ddot": 0,
        "tle_line1": "1 34420U 93036RM  25359.07879273  .00001346  00000+0  21975-3 0  9991",
        "tle_line2": "2 34420  74.0333  80.0919 0106054 198.2983 231.8315 14.68332611899518"
      },
      "geometry": {
        "type": "Point",
        "coordinates": [
          84.37418661868018,
          21.19008708144356
        ]
      }
    }
  ]
}